{"fetched_at":"2026-07-17T06:37:49.595Z","source":"https://celestrak.org/NORAD/elements/gp.php?GROUP=kuiper&FORMAT=JSON","constellation":"kuiper","records":[{"OBJECT_NAME":"KUIPER-00572","OBJECT_ID":"2026-118F","EPOCH":"2026-07-16T20:00:01.999008","CLASSIFICATION_TYPE":"U","MEAN_MOTION":15.22147531,"ECCENTRICITY":0.0005767,"INCLINATION":51.8749,"RA_OF_ASC_NODE":270.534,"ARG_OF_PERICENTER":291.3294,"MEAN_ANOMALY":78.7064,"EPHEMERIS_TYPE":0,"NORAD_CAT_ID":69272,"ELEMENT_SET_NO":999,"REV_AT_EPOCH":556,"BSTAR":-0.055788,"MEAN_MOTION_DOT":-0.01193685,"MEAN_MOTION_DDOT":0},{"OBJECT_NAME":"KUIPER-00581","OBJECT_ID":"2026-118G","EPOCH":"2026-07-16T20:00:01.999008","CLASSIFICATION_TYPE":"U","MEAN_MOTION":14.98454824,"ECCENTRICITY":0.0006032,"INCLINATION":51.8917,"RA_OF_ASC_NODE":272.7304,"ARG_OF_PERICENTER":315.4777,"MEAN_ANOMALY":7.4099,"EPHEMERIS_TYPE":0,"NORAD_CAT_ID":69273,"ELEMENT_SET_NO":999,"REV_AT_EPOCH":588,"BSTAR":-0.0051584,"MEAN_MOTION_DOT":-0.00062039,"MEAN_MOTION_DDOT":0},{"OBJECT_NAME":"KUIPER-00584","OBJECT_ID":"2026-118H","EPOCH":"2026-07-16T20:00:01.999008","CLASSIFICATION_TYPE":"U","MEAN_MOTION":14.87986902,"ECCENTRICITY":0.0012457,"INCLINATION":51.8975,"RA_OF_ASC_NODE":274.8763,"ARG_OF_PERICENTER":321.7963,"MEAN_ANOMALY":328.9446,"EPHEMERIS_TYPE":0,"NORAD_CAT_ID":69274,"ELEMENT_SET_NO":999,"REV_AT_EPOCH":581,"BSTAR":-0.0094051,"MEAN_MOTION_DOT":-0.00086442,"MEAN_MOTION_DDOT":0},{"OBJECT_NAME":"KUIPER-00587","OBJECT_ID":"2026-118J","EPOCH":"2026-07-16T17:25:51.623616","CLASSIFICATION_TYPE":"U","MEAN_MOTION":15.34774632,"ECCENTRICITY":0.0006683,"INCLINATION":51.8629,"RA_OF_ASC_NODE":270.6194,"ARG_OF_PERICENTER":308.4897,"MEAN_ANOMALY":51.5488,"EPHEMERIS_TYPE":0,"NORAD_CAT_ID":69275,"ELEMENT_SET_NO":999,"REV_AT_EPOCH":852,"BSTAR":-0.0070289,"MEAN_MOTION_DOT":-0.00233879,"MEAN_MOTION_DDOT":0},{"OBJECT_NAME":"KUIPER-00590","OBJECT_ID":"2026-118K","EPOCH":"2026-07-16T20:00:01.999008","CLASSIFICATION_TYPE":"U","MEAN_MOTION":15.09075868,"ECCENTRICITY":0.0001233,"INCLINATION":51.8838,"RA_OF_ASC_NODE":271.2171,"ARG_OF_PERICENTER":64.2998,"MEAN_ANOMALY":34.984,"EPHEMERIS_TYPE":0,"NORAD_CAT_ID":69276,"ELEMENT_SET_NO":999,"REV_AT_EPOCH":543,"BSTAR":-0.0063469,"MEAN_MOTION_DOT":-0.00100616,"MEAN_MOTION_DDOT":0},{"OBJECT_NAME":"KUIPER-00592","OBJECT_ID":"2026-118L","EPOCH":"2026-07-16T20:00:01.999008","CLASSIFICATION_TYPE":"U","MEAN_MOTION":15.15833276,"ECCENTRICITY":0.000042,"INCLINATION":51.8763,"RA_OF_ASC_NODE":270.9112,"ARG_OF_PERICENTER":137.3744,"MEAN_ANOMALY":122.031,"EPHEMERIS_TYPE":0,"NORAD_CAT_ID":69277,"ELEMENT_SET_NO":999,"REV_AT_EPOCH":474,"BSTAR":-0.10392,"MEAN_MOTION_DOT":-0.01830126,"MEAN_MOTION_DDOT":0},{"OBJECT_NAME":"KUIPER-00593","OBJECT_ID":"2026-118M","EPOCH":"2026-07-16T20:00:01.999008","CLASSIFICATION_TYPE":"U","MEAN_MOTION":15.38763068,"ECCENTRICITY":0.0003039,"INCLINATION":51.8703,"RA_OF_ASC_NODE":269.6036,"ARG_OF_PERICENTER":287.4404,"MEAN_ANOMALY":204.2521,"EPHEMERIS_TYPE":0,"NORAD_CAT_ID":69278,"ELEMENT_SET_NO":999,"REV_AT_EPOCH":474,"BSTAR":-0.00055618,"MEAN_MOTION_DOT":-0.0002199,"MEAN_MOTION_DDOT":0},{"OBJECT_NAME":"KUIPER-00594","OBJECT_ID":"2026-118N","EPOCH":"2026-07-16T10:06:24.648768","CLASSIFICATION_TYPE":"U","MEAN_MOTION":15.37459272,"ECCENTRICITY":0.0001818,"INCLINATION":51.8701,"RA_OF_ASC_NODE":271.6117,"ARG_OF_PERICENTER":72.5011,"MEAN_ANOMALY":287.6174,"EPHEMERIS_TYPE":0,"NORAD_CAT_ID":69279,"ELEMENT_SET_NO":999,"REV_AT_EPOCH":848,"BSTAR":0.00033995,"MEAN_MOTION_DOT":0.00012313,"MEAN_MOTION_DDOT":0},{"OBJECT_NAME":"KUIPER-00595","OBJECT_ID":"2026-118P","EPOCH":"2026-07-15T13:53:22.767072","CLASSIFICATION_TYPE":"U","MEAN_MOTION":15.37465777,"ECCENTRICITY":0.0001284,"INCLINATION":51.8703,"RA_OF_ASC_NODE":275.717,"ARG_OF_PERICENTER":1.8279,"MEAN_ANOMALY":358.2712,"EPHEMERIS_TYPE":0,"NORAD_CAT_ID":69280,"ELEMENT_SET_NO":999,"REV_AT_EPOCH":838,"BSTAR":0.00033298,"MEAN_MOTION_DOT":0.00012055,"MEAN_MOTION_DDOT":0},{"OBJECT_NAME":"KUIPER-00596","OBJECT_ID":"2026-118Q","EPOCH":"2026-07-16T20:00:01.999008","CLASSIFICATION_TYPE":"U","MEAN_MOTION":14.87403665,"ECCENTRICITY":0.001223,"INCLINATION":51.8969,"RA_OF_ASC_NODE":274.7314,"ARG_OF_PERICENTER":308.1984,"MEAN_ANOMALY":82.597,"EPHEMERIS_TYPE":0,"NORAD_CAT_ID":69281,"ELEMENT_SET_NO":999,"REV_AT_EPOCH":536,"BSTAR":-0.010043,"MEAN_MOTION_DOT":-0.00090907,"MEAN_MOTION_DDOT":0},{"OBJECT_NAME":"KUIPER-00597","OBJECT_ID":"2026-118R","EPOCH":"2026-07-16T15:29:03.190848","CLASSIFICATION_TYPE":"U","MEAN_MOTION":15.37807659,"ECCENTRICITY":0.0006318,"INCLINATION":51.864,"RA_OF_ASC_NODE":270.838,"ARG_OF_PERICENTER":297.0095,"MEAN_ANOMALY":63.0247,"EPHEMERIS_TYPE":0,"NORAD_CAT_ID":69282,"ELEMENT_SET_NO":999,"REV_AT_EPOCH":851,"BSTAR":0.00031516,"MEAN_MOTION_DOT":0.00011522,"MEAN_MOTION_DDOT":0},{"OBJECT_NAME":"KUIPER-00599","OBJECT_ID":"2026-118S","EPOCH":"2026-07-16T20:00:01.999008","CLASSIFICATION_TYPE":"U","MEAN_MOTION":15.34591592,"ECCENTRICITY":0.000524,"INCLINATION":51.869,"RA_OF_ASC_NODE":269.9214,"ARG_OF_PERICENTER":292.2332,"MEAN_ANOMALY":49.2966,"EPHEMERIS_TYPE":0,"NORAD_CAT_ID":69283,"ELEMENT_SET_NO":999,"REV_AT_EPOCH":367,"BSTAR":-0.03662,"MEAN_MOTION_DOT":-0.01138263,"MEAN_MOTION_DDOT":0},{"OBJECT_NAME":"KUIPER-00600","OBJECT_ID":"2026-118T","EPOCH":"2026-07-16T12:37:08.301792","CLASSIFICATION_TYPE":"U","MEAN_MOTION":15.37463834,"ECCENTRICITY":0.0007962,"INCLINATION":51.8636,"RA_OF_ASC_NODE":271.5301,"ARG_OF_PERICENTER":294.2689,"MEAN_ANOMALY":65.7466,"EPHEMERIS_TYPE":0,"NORAD_CAT_ID":69284,"ELEMENT_SET_NO":999,"REV_AT_EPOCH":849,"BSTAR":0.00027408,"MEAN_MOTION_DOT":0.00009856,"MEAN_MOTION_DDOT":0},{"OBJECT_NAME":"KUIPER-00601","OBJECT_ID":"2026-118U","EPOCH":"2026-07-16T20:00:01.999008","CLASSIFICATION_TYPE":"U","MEAN_MOTION":15.14176496,"ECCENTRICITY":0.0002862,"INCLINATION":51.8846,"RA_OF_ASC_NODE":271.0681,"ARG_OF_PERICENTER":293.0056,"MEAN_ANOMALY":195.0846,"EPHEMERIS_TYPE":0,"NORAD_CAT_ID":69285,"ELEMENT_SET_NO":999,"REV_AT_EPOCH":429,"BSTAR":-0.11302,"MEAN_MOTION_DOT":-0.01893099,"MEAN_MOTION_DDOT":0},{"OBJECT_NAME":"KUIPER-00602","OBJECT_ID":"2026-118V","EPOCH":"2026-07-16T20:00:01.999008","CLASSIFICATION_TYPE":"U","MEAN_MOTION":15.37265075,"ECCENTRICITY":0.0002662,"INCLINATION":51.8693,"RA_OF_ASC_NODE":269.6042,"ARG_OF_PERICENTER":298.3178,"MEAN_ANOMALY":191.8527,"EPHEMERIS_TYPE":0,"NORAD_CAT_ID":69286,"ELEMENT_SET_NO":999,"REV_AT_EPOCH":492,"BSTAR":-0.00057701,"MEAN_MOTION_DOT":-0.00021725,"MEAN_MOTION_DDOT":0},{"OBJECT_NAME":"KUIPER-00603","OBJECT_ID":"2026-118W","EPOCH":"2026-07-16T20:00:01.999008","CLASSIFICATION_TYPE":"U","MEAN_MOTION":15.32700483,"ECCENTRICITY":0.0003493,"INCLINATION":51.8685,"RA_OF_ASC_NODE":269.8381,"ARG_OF_PERICENTER":286.3057,"MEAN_ANOMALY":75.4039,"EPHEMERIS_TYPE":0,"NORAD_CAT_ID":69287,"ELEMENT_SET_NO":999,"REV_AT_EPOCH":586,"BSTAR":-0.037901,"MEAN_MOTION_DOT":-0.01111033,"MEAN_MOTION_DDOT":0}]}
