KUIPER-00572            
1 69272U 26118F   26197.83335647 -.01193685  00000+0 -55788-1 0  9996
2 69272  51.8749 270.5340 0005767 291.3294  78.7064 15.22147531  5567
KUIPER-00581            
1 69273U 26118G   26197.83335647 -.00062039  00000+0 -51584-2 0  9995
2 69273  51.8917 272.7304 0006032 315.4777   7.4099 14.98454824  5889
KUIPER-00584            
1 69274U 26118H   26197.83335647 -.00086442  00000+0 -94051-2 0  9996
2 69274  51.8975 274.8763 0012457 321.7963 328.9446 14.87986902  5816
KUIPER-00587            
1 69275U 26118J   26197.72629194 -.00233879  00000+0 -70289-2 0  9993
2 69275  51.8629 270.6194 0006683 308.4897  51.5488 15.34774632  8521
KUIPER-00590            
1 69276U 26118K   26197.83335647 -.00100616  00000+0 -63469-2 0  9997
2 69276  51.8838 271.2171 0001233  64.2998  34.9840 15.09075868  5432
KUIPER-00592            
1 69277U 26118L   26197.83335647 -.01830126  00000+0 -10392+0 0  9999
2 69277  51.8763 270.9112 0000420 137.3744 122.0310 15.15833276  4745
KUIPER-00593            
1 69278U 26118M   26197.83335647 -.00021990  00000+0 -55618-3 0  9994
2 69278  51.8703 269.6036 0003039 287.4404 204.2521 15.38763068  4742
KUIPER-00594            
1 69279U 26118N   26197.42111862  .00012313  00000+0  33995-3 0  9992
2 69279  51.8701 271.6117 0001818  72.5011 287.6174 15.37459272  8486
KUIPER-00595            
1 69280U 26118P   26196.57873573  .00012055  00000+0  33298-3 0  9992
2 69280  51.8703 275.7170 0001284   1.8279 358.2712 15.37465777  8381
KUIPER-00596            
1 69281U 26118Q   26197.83335647 -.00090907  00000+0 -10043-1 0  9993
2 69281  51.8969 274.7314 0012230 308.1984  82.5970 14.87403665  5364
KUIPER-00597            
1 69282U 26118R   26197.64517582  .00011522  00000+0  31516-3 0  9997
2 69282  51.8640 270.8380 0006318 297.0095  63.0247 15.37807659  8518
KUIPER-00599            
1 69283U 26118S   26197.83335647 -.01138263  00000+0 -36620-1 0  9993
2 69283  51.8690 269.9214 0005240 292.2332  49.2966 15.34591592  3672
KUIPER-00600            
1 69284U 26118T   26197.52579053  .00009856  00000+0  27408-3 0  9999
2 69284  51.8636 271.5301 0007962 294.2689  65.7466 15.37463834  8492
KUIPER-00601            
1 69285U 26118U   26197.83335647 -.01893099  00000+0 -11302+0 0  9998
2 69285  51.8846 271.0681 0002862 293.0056 195.0846 15.14176496  4294
KUIPER-00602            
1 69286U 26118V   26197.83335647 -.00021725  00000+0 -57701-3 0  9994
2 69286  51.8693 269.6042 0002662 298.3178 191.8527 15.37265075  4927
KUIPER-00603            
1 69287U 26118W   26197.83335647 -.01111033  00000+0 -37901-1 0  9996
2 69287  51.8685 269.8381 0003493 286.3057  75.4039 15.32700483  5864
